{
  "type": "FeatureCollection",
  "features": [
    {
      "type": "Feature",
      "properties": {
        "id": 0,
        "name": "Feature 0"
      },
      "geometry": {
        "type": "Point",
        "coordinates": [
          -120.5,
          46.2
        ]
      }
    },
    {
      "type": "Feature",
      "properties": {
        "id": 1,
        "name": "Feature 1"
      },
      "geometry": {
        "type": "Point",
        "coordinates": [
          -120.499,
          46.201
        ]
      }
    },
    {
      "type": "Feature",
      "properties": {
        "id": 2,
        "name": "Feature 2"
      },
      "geometry": {
        "type": "Point",
        "coordinates": [
          -120.498,
          46.202000000000005
        ]
      }
    },
    {
      "type": "Feature",
      "properties": {
        "id": 3,
        "name": "Feature 3"
      },
      "geometry": {
        "type": "Point",
        "coordinates": [
          -120.497,
          46.203
        ]
      }
    },
    {
      "type": "Feature",
      "properties": {
        "id": 4,
        "name": "Feature 4"
      },
      "geometry": {
        "type": "Point",
        "coordinates": [
          -120.496,
          46.204
        ]
      }
    },
    {
      "type": "Feature",
      "properties": {
        "id": 5,
        "name": "Feature 5"
      },
      "geometry": {
        "type": "Point",
        "coordinates": [
          -120.495,
          46.205000000000005
        ]
      }
    },
    {
      "type": "Feature",
      "properties": {
        "id": 6,
        "name": "Feature 6"
      },
      "geometry": {
        "type": "Point",
        "coordinates": [
          -120.494,
          46.206
        ]
      }
    },
    {
      "type": "Feature",
      "properties": {
        "id": 7,
        "name": "Feature 7"
      },
      "geometry": {
        "type": "Point",
        "coordinates": [
          -120.493,
          46.207
        ]
      }
    },
    {
      "type": "Feature",
      "properties": {
        "id": 8,
        "name": "Feature 8"
      },
      "geometry": {
        "type": "Point",
        "coordinates": [
          -120.492,
          46.208000000000006
        ]
      }
    },
    {
      "type": "Feature",
      "properties": {
        "id": 9,
        "name": "Feature 9"
      },
      "geometry": {
        "type": "Point",
        "coordinates": [
          -120.491,
          46.209
        ]
      }
    },
    {
      "type": "Feature",
      "properties": {
        "id": 10,
        "name": "Feature 10"
      },
      "geometry": {
        "type": "Point",
        "coordinates": [
          -120.49,
          46.21
        ]
      }
    },
    {
      "type": "Feature",
      "properties": {
        "id": 11,
        "name": "Feature 11"
      },
      "geometry": {
        "type": "Point",
        "coordinates": [
          -120.489,
          46.211000000000006
        ]
      }
    },
    {
      "type": "Feature",
      "properties": {
        "id": 12,
        "name": "Feature 12"
      },
      "geometry": {
        "type": "Point",
        "coordinates": [
          -120.488,
          46.212
        ]
      }
    },
    {
      "type": "Feature",
      "properties": {
        "id": 13,
        "name": "Feature 13"
      },
      "geometry": {
        "type": "Point",
        "coordinates": [
          -120.487,
          46.213
        ]
      }
    },
    {
      "type": "Feature",
      "properties": {
        "id": 14,
        "name": "Feature 14"
      },
      "geometry": {
        "type": "Point",
        "coordinates": [
          -120.486,
          46.214000000000006
        ]
      }
    },
    {
      "type": "Feature",
      "properties": {
        "id": 15,
        "name": "Feature 15"
      },
      "geometry": {
        "type": "Point",
        "coordinates": [
          -120.485,
          46.215
        ]
      }
    },
    {
      "type": "Feature",
      "properties": {
        "id": 16,
        "name": "Feature 16"
      },
      "geometry": {
        "type": "Point",
        "coordinates": [
          -120.484,
          46.216
        ]
      }
    },
    {
      "type": "Feature",
      "properties": {
        "id": 17,
        "name": "Feature 17"
      },
      "geometry": {
        "type": "Point",
        "coordinates": [
          -120.483,
          46.217000000000006
        ]
      }
    },
    {
      "type": "Feature",
      "properties": {
        "id": 18,
        "name": "Feature 18"
      },
      "geometry": {
        "type": "Point",
        "coordinates": [
          -120.482,
          46.218
        ]
      }
    },
    {
      "type": "Feature",
      "properties": {
        "id": 19,
        "name": "Feature 19"
      },
      "geometry": {
        "type": "Point",
        "coordinates": [
          -120.481,
          46.219
        ]
      }
    },
    {
      "type": "Feature",
      "properties": {
        "id": 20,
        "name": "Feature 20"
      },
      "geometry": {
        "type": "Point",
        "coordinates": [
          -120.48,
          46.220000000000006
        ]
      }
    },
    {
      "type": "Feature",
      "properties": {
        "id": 21,
        "name": "Feature 21"
      },
      "geometry": {
        "type": "Point",
        "coordinates": [
          -120.479,
          46.221000000000004
        ]
      }
    },
    {
      "type": "Feature",
      "properties": {
        "id": 22,
        "name": "Feature 22"
      },
      "geometry": {
        "type": "Point",
        "coordinates": [
          -120.478,
          46.222
        ]
      }
    },
    {
      "type": "Feature",
      "properties": {
        "id": 23,
        "name": "Feature 23"
      },
      "geometry": {
        "type": "Point",
        "coordinates": [
          -120.477,
          46.223000000000006
        ]
      }
    },
    {
      "type": "Feature",
      "properties": {
        "id": 24,
        "name": "Feature 24"
      },
      "geometry": {
        "type": "Point",
        "coordinates": [
          -120.476,
          46.224000000000004
        ]
      }
    },
    {
      "type": "Feature",
      "properties": {
        "id": 25,
        "name": "Feature 25"
      },
      "geometry": {
        "type": "Point",
        "coordinates": [
          -120.475,
          46.225
        ]
      }
    },
    {
      "type": "Feature",
      "properties": {
        "id": 26,
        "name": "Feature 26"
      },
      "geometry": {
        "type": "Point",
        "coordinates": [
          -120.474,
          46.226000000000006
        ]
      }
    },
    {
      "type": "Feature",
      "properties": {
        "id": 27,
        "name": "Feature 27"
      },
      "geometry": {
        "type": "Point",
        "coordinates": [
          -120.473,
          46.227000000000004
        ]
      }
    },
    {
      "type": "Feature",
      "properties": {
        "id": 28,
        "name": "Feature 28"
      },
      "geometry": {
        "type": "Point",
        "coordinates": [
          -120.472,
          46.228
        ]
      }
    },
    {
      "type": "Feature",
      "properties": {
        "id": 29,
        "name": "Feature 29"
      },
      "geometry": {
        "type": "Point",
        "coordinates": [
          -120.471,
          46.229000000000006
        ]
      }
    },
    {
      "type": "Feature",
      "properties": {
        "id": 30,
        "name": "Feature 30"
      },
      "geometry": {
        "type": "Point",
        "coordinates": [
          -120.47,
          46.230000000000004
        ]
      }
    },
    {
      "type": "Feature",
      "properties": {
        "id": 31,
        "name": "Feature 31"
      },
      "geometry": {
        "type": "Point",
        "coordinates": [
          -120.469,
          46.231
        ]
      }
    },
    {
      "type": "Feature",
      "properties": {
        "id": 32,
        "name": "Feature 32"
      },
      "geometry": {
        "type": "Point",
        "coordinates": [
          -120.468,
          46.232
        ]
      }
    },
    {
      "type": "Feature",
      "properties": {
        "id": 33,
        "name": "Feature 33"
      },
      "geometry": {
        "type": "Point",
        "coordinates": [
          -120.467,
          46.233000000000004
        ]
      }
    },
    {
      "type": "Feature",
      "properties": {
        "id": 34,
        "name": "Feature 34"
      },
      "geometry": {
        "type": "Point",
        "coordinates": [
          -120.466,
          46.234
        ]
      }
    },
    {
      "type": "Feature",
      "properties": {
        "id": 35,
        "name": "Feature 35"
      },
      "geometry": {
        "type": "Point",
        "coordinates": [
          -120.465,
          46.235
        ]
      }
    },
    {
      "type": "Feature",
      "properties": {
        "id": 36,
        "name": "Feature 36"
      },
      "geometry": {
        "type": "Point",
        "coordinates": [
          -120.464,
          46.236000000000004
        ]
      }
    },
    {
      "type": "Feature",
      "properties": {
        "id": 37,
        "name": "Feature 37"
      },
      "geometry": {
        "type": "Point",
        "coordinates": [
          -120.463,
          46.237
        ]
      }
    },
    {
      "type": "Feature",
      "properties": {
        "id": 38,
        "name": "Feature 38"
      },
      "geometry": {
        "type": "Point",
        "coordinates": [
          -120.462,
          46.238
        ]
      }
    },
    {
      "type": "Feature",
      "properties": {
        "id": 39,
        "name": "Feature 39"
      },
      "geometry": {
        "type": "Point",
        "coordinates": [
          -120.461,
          46.239000000000004
        ]
      }
    },
    {
      "type": "Feature",
      "properties": {
        "id": 40,
        "name": "Feature 40"
      },
      "geometry": {
        "type": "Point",
        "coordinates": [
          -120.46,
          46.24
        ]
      }
    },
    {
      "type": "Feature",
      "properties": {
        "id": 41,
        "name": "Feature 41"
      },
      "geometry": {
        "type": "Point",
        "coordinates": [
          -120.459,
          46.241
        ]
      }
    },
    {
      "type": "Feature",
      "properties": {
        "id": 42,
        "name": "Feature 42"
      },
      "geometry": {
        "type": "Point",
        "coordinates": [
          -120.458,
          46.242000000000004
        ]
      }
    },
    {
      "type": "Feature",
      "properties": {
        "id": 43,
        "name": "Feature 43"
      },
      "geometry": {
        "type": "Point",
        "coordinates": [
          -120.457,
          46.243
        ]
      }
    },
    {
      "type": "Feature",
      "properties": {
        "id": 44,
        "name": "Feature 44"
      },
      "geometry": {
        "type": "Point",
        "coordinates": [
          -120.456,
          46.244
        ]
      }
    },
    {
      "type": "Feature",
      "properties": {
        "id": 45,
        "name": "Feature 45"
      },
      "geometry": {
        "type": "Point",
        "coordinates": [
          -120.455,
          46.245000000000005
        ]
      }
    },
    {
      "type": "Feature",
      "properties": {
        "id": 46,
        "name": "Feature 46"
      },
      "geometry": {
        "type": "Point",
        "coordinates": [
          -120.454,
          46.246
        ]
      }
    },
    {
      "type": "Feature",
      "properties": {
        "id": 47,
        "name": "Feature 47"
      },
      "geometry": {
        "type": "Point",
        "coordinates": [
          -120.453,
          46.247
        ]
      }
    },
    {
      "type": "Feature",
      "properties": {
        "id": 48,
        "name": "Feature 48"
      },
      "geometry": {
        "type": "Point",
        "coordinates": [
          -120.452,
          46.248000000000005
        ]
      }
    },
    {
      "type": "Feature",
      "properties": {
        "id": 49,
        "name": "Feature 49"
      },
      "geometry": {
        "type": "Point",
        "coordinates": [
          -120.451,
          46.249
        ]
      }
    },
    {
      "type": "Feature",
      "properties": {
        "id": 50,
        "name": "Feature 50"
      },
      "geometry": {
        "type": "Point",
        "coordinates": [
          -120.45,
          46.25
        ]
      }
    },
    {
      "type": "Feature",
      "properties": {
        "id": 51,
        "name": "Feature 51"
      },
      "geometry": {
        "type": "Point",
        "coordinates": [
          -120.449,
          46.251000000000005
        ]
      }
    },
    {
      "type": "Feature",
      "properties": {
        "id": 52,
        "name": "Feature 52"
      },
      "geometry": {
        "type": "Point",
        "coordinates": [
          -120.448,
          46.252
        ]
      }
    },
    {
      "type": "Feature",
      "properties": {
        "id": 53,
        "name": "Feature 53"
      },
      "geometry": {
        "type": "Point",
        "coordinates": [
          -120.447,
          46.253
        ]
      }
    },
    {
      "type": "Feature",
      "properties": {
        "id": 54,
        "name": "Feature 54"
      },
      "geometry": {
        "type": "Point",
        "coordinates": [
          -120.446,
          46.254000000000005
        ]
      }
    },
    {
      "type": "Feature",
      "properties": {
        "id": 55,
        "name": "Feature 55"
      },
      "geometry": {
        "type": "Point",
        "coordinates": [
          -120.445,
          46.255
        ]
      }
    },
    {
      "type": "Feature",
      "properties": {
        "id": 56,
        "name": "Feature 56"
      },
      "geometry": {
        "type": "Point",
        "coordinates": [
          -120.444,
          46.256
        ]
      }
    },
    {
      "type": "Feature",
      "properties": {
        "id": 57,
        "name": "Feature 57"
      },
      "geometry": {
        "type": "Point",
        "coordinates": [
          -120.443,
          46.257000000000005
        ]
      }
    },
    {
      "type": "Feature",
      "properties": {
        "id": 58,
        "name": "Feature 58"
      },
      "geometry": {
        "type": "Point",
        "coordinates": [
          -120.442,
          46.258
        ]
      }
    },
    {
      "type": "Feature",
      "properties": {
        "id": 59,
        "name": "Feature 59"
      },
      "geometry": {
        "type": "Point",
        "coordinates": [
          -120.441,
          46.259
        ]
      }
    },
    {
      "type": "Feature",
      "properties": {
        "id": 60,
        "name": "Feature 60"
      },
      "geometry": {
        "type": "Point",
        "coordinates": [
          -120.44,
          46.260000000000005
        ]
      }
    },
    {
      "type": "Feature",
      "properties": {
        "id": 61,
        "name": "Feature 61"
      },
      "geometry": {
        "type": "Point",
        "coordinates": [
          -120.439,
          46.261
        ]
      }
    },
    {
      "type": "Feature",
      "properties": {
        "id": 62,
        "name": "Feature 62"
      },
      "geometry": {
        "type": "Point",
        "coordinates": [
          -120.438,
          46.262
        ]
      }
    },
    {
      "type": "Feature",
      "properties": {
        "id": 63,
        "name": "Feature 63"
      },
      "geometry": {
        "type": "Point",
        "coordinates": [
          -120.437,
          46.263000000000005
        ]
      }
    },
    {
      "type": "Feature",
      "properties": {
        "id": 64,
        "name": "Feature 64"
      },
      "geometry": {
        "type": "Point",
        "coordinates": [
          -120.436,
          46.264
        ]
      }
    },
    {
      "type": "Feature",
      "properties": {
        "id": 65,
        "name": "Feature 65"
      },
      "geometry": {
        "type": "Point",
        "coordinates": [
          -120.435,
          46.265
        ]
      }
    },
    {
      "type": "Feature",
      "properties": {
        "id": 66,
        "name": "Feature 66"
      },
      "geometry": {
        "type": "Point",
        "coordinates": [
          -120.434,
          46.266000000000005
        ]
      }
    },
    {
      "type": "Feature",
      "properties": {
        "id": 67,
        "name": "Feature 67"
      },
      "geometry": {
        "type": "Point",
        "coordinates": [
          -120.433,
          46.267
        ]
      }
    },
    {
      "type": "Feature",
      "properties": {
        "id": 68,
        "name": "Feature 68"
      },
      "geometry": {
        "type": "Point",
        "coordinates": [
          -120.432,
          46.268
        ]
      }
    },
    {
      "type": "Feature",
      "properties": {
        "id": 69,
        "name": "Feature 69"
      },
      "geometry": {
        "type": "Point",
        "coordinates": [
          -120.431,
          46.269000000000005
        ]
      }
    },
    {
      "type": "Feature",
      "properties": {
        "id": 70,
        "name": "Feature 70"
      },
      "geometry": {
        "type": "Point",
        "coordinates": [
          -120.43,
          46.27
        ]
      }
    },
    {
      "type": "Feature",
      "properties": {
        "id": 71,
        "name": "Feature 71"
      },
      "geometry": {
        "type": "Point",
        "coordinates": [
          -120.429,
          46.271
        ]
      }
    },
    {
      "type": "Feature",
      "properties": {
        "id": 72,
        "name": "Feature 72"
      },
      "geometry": {
        "type": "Point",
        "coordinates": [
          -120.428,
          46.272000000000006
        ]
      }
    },
    {
      "type": "Feature",
      "properties": {
        "id": 73,
        "name": "Feature 73"
      },
      "geometry": {
        "type": "Point",
        "coordinates": [
          -120.427,
          46.273
        ]
      }
    },
    {
      "type": "Feature",
      "properties": {
        "id": 74,
        "name": "Feature 74"
      },
      "geometry": {
        "type": "Point",
        "coordinates": [
          -120.426,
          46.274
        ]
      }
    },
    {
      "type": "Feature",
      "properties": {
        "id": 75,
        "name": "Feature 75"
      },
      "geometry": {
        "type": "Point",
        "coordinates": [
          -120.425,
          46.275000000000006
        ]
      }
    },
    {
      "type": "Feature",
      "properties": {
        "id": 76,
        "name": "Feature 76"
      },
      "geometry": {
        "type": "Point",
        "coordinates": [
          -120.424,
          46.276
        ]
      }
    },
    {
      "type": "Feature",
      "properties": {
        "id": 77,
        "name": "Feature 77"
      },
      "geometry": {
        "type": "Point",
        "coordinates": [
          -120.423,
          46.277
        ]
      }
    },
    {
      "type": "Feature",
      "properties": {
        "id": 78,
        "name": "Feature 78"
      },
      "geometry": {
        "type": "Point",
        "coordinates": [
          -120.422,
          46.278000000000006
        ]
      }
    },
    {
      "type": "Feature",
      "properties": {
        "id": 79,
        "name": "Feature 79"
      },
      "geometry": {
        "type": "Point",
        "coordinates": [
          -120.421,
          46.279
        ]
      }
    },
    {
      "type": "Feature",
      "properties": {
        "id": 80,
        "name": "Feature 80"
      },
      "geometry": {
        "type": "Point",
        "coordinates": [
          -120.42,
          46.28
        ]
      }
    },
    {
      "type": "Feature",
      "properties": {
        "id": 81,
        "name": "Feature 81"
      },
      "geometry": {
        "type": "Point",
        "coordinates": [
          -120.419,
          46.281000000000006
        ]
      }
    },
    {
      "type": "Feature",
      "properties": {
        "id": 82,
        "name": "Feature 82"
      },
      "geometry": {
        "type": "Point",
        "coordinates": [
          -120.418,
          46.282000000000004
        ]
      }
    },
    {
      "type": "Feature",
      "properties": {
        "id": 83,
        "name": "Feature 83"
      },
      "geometry": {
        "type": "Point",
        "coordinates": [
          -120.417,
          46.283
        ]
      }
    },
    {
      "type": "Feature",
      "properties": {
        "id": 84,
        "name": "Feature 84"
      },
      "geometry": {
        "type": "Point",
        "coordinates": [
          -120.416,
          46.284000000000006
        ]
      }
    },
    {
      "type": "Feature",
      "properties": {
        "id": 85,
        "name": "Feature 85"
      },
      "geometry": {
        "type": "Point",
        "coordinates": [
          -120.415,
          46.285000000000004
        ]
      }
    },
    {
      "type": "Feature",
      "properties": {
        "id": 86,
        "name": "Feature 86"
      },
      "geometry": {
        "type": "Point",
        "coordinates": [
          -120.414,
          46.286
        ]
      }
    },
    {
      "type": "Feature",
      "properties": {
        "id": 87,
        "name": "Feature 87"
      },
      "geometry": {
        "type": "Point",
        "coordinates": [
          -120.413,
          46.287000000000006
        ]
      }
    },
    {
      "type": "Feature",
      "properties": {
        "id": 88,
        "name": "Feature 88"
      },
      "geometry": {
        "type": "Point",
        "coordinates": [
          -120.412,
          46.288000000000004
        ]
      }
    },
    {
      "type": "Feature",
      "properties": {
        "id": 89,
        "name": "Feature 89"
      },
      "geometry": {
        "type": "Point",
        "coordinates": [
          -120.411,
          46.289
        ]
      }
    },
    {
      "type": "Feature",
      "properties": {
        "id": 90,
        "name": "Feature 90"
      },
      "geometry": {
        "type": "Point",
        "coordinates": [
          -120.41,
          46.290000000000006
        ]
      }
    },
    {
      "type": "Feature",
      "properties": {
        "id": 91,
        "name": "Feature 91"
      },
      "geometry": {
        "type": "Point",
        "coordinates": [
          -120.409,
          46.291000000000004
        ]
      }
    },
    {
      "type": "Feature",
      "properties": {
        "id": 92,
        "name": "Feature 92"
      },
      "geometry": {
        "type": "Point",
        "coordinates": [
          -120.408,
          46.292
        ]
      }
    },
    {
      "type": "Feature",
      "properties": {
        "id": 93,
        "name": "Feature 93"
      },
      "geometry": {
        "type": "Point",
        "coordinates": [
          -120.407,
          46.293000000000006
        ]
      }
    },
    {
      "type": "Feature",
      "properties": {
        "id": 94,
        "name": "Feature 94"
      },
      "geometry": {
        "type": "Point",
        "coordinates": [
          -120.406,
          46.294000000000004
        ]
      }
    },
    {
      "type": "Feature",
      "properties": {
        "id": 95,
        "name": "Feature 95"
      },
      "geometry": {
        "type": "Point",
        "coordinates": [
          -120.405,
          46.295
        ]
      }
    },
    {
      "type": "Feature",
      "properties": {
        "id": 96,
        "name": "Feature 96"
      },
      "geometry": {
        "type": "Point",
        "coordinates": [
          -120.404,
          46.296
        ]
      }
    },
    {
      "type": "Feature",
      "properties": {
        "id": 97,
        "name": "Feature 97"
      },
      "geometry": {
        "type": "Point",
        "coordinates": [
          -120.403,
          46.297000000000004
        ]
      }
    },
    {
      "type": "Feature",
      "properties": {
        "id": 98,
        "name": "Feature 98"
      },
      "geometry": {
        "type": "Point",
        "coordinates": [
          -120.402,
          46.298
        ]
      }
    },
    {
      "type": "Feature",
      "properties": {
        "id": 99,
        "name": "Feature 99"
      },
      "geometry": {
        "type": "Point",
        "coordinates": [
          -120.401,
          46.299
        ]
      }
    }
  ],
  "tf_metadata": {
    "migration_date": "2025-09-19T00:39:37.123490",
    "coordinate_system": "EPSG:4326",
    "data_source": "legacy_gis_migration",
    "ai_validation": "pending"
  }
}